{
    "type": "FeatureCollection",
    "name": "attendance-geodata.geojson",
    "crs": { "type": "name", "properties": { "name": "urn:ogc:def:crs:OGC:1.3:CRS84" } },
    "features": [
    { "type": "Feature", "properties": { "See": "Ábela", "Modern_City": "Ávila", "Province": "Carthaginensis", "Latitude": 40.654347, "Longitude": -4.696222, "Earliest_Attested_Bishop": 380, "Elvira_306": "-", "Elvira_306 Attendance": false, "Zaragoza_380": "-", "Toledo_400": "-", "Tarragona_516": "-", "Tarragona_516 Attendance": false, "Giron_517": "-", "Giron_517 Attendance": false, "Toledo_527": "-", "Toledo_527 Attendance": false, "Barcelona_540": "-", "Barcelona_540 Attendance": false, "Lérida_546": "-", "Lérida_546 Attendance": false, "Valencia_546": "-", "Valencia_546 Attendance": false, "Braga_561": "-", "Braga_561 Attendance": false, "Braga_572": "-", "Braga_572 Attendance": false, "Toledo_589": "-", "Toledo_589 Attendance": false, "Notes": null, "Toledo_400 Attendance": false, "Zaragoza_380 Attendance": false }, "geometry": { "type": "Point", "coordinates": [ -4.696222, 40.654347 ] } },
    { "type": "Feature", "properties": { "See": "Acci", "Modern_City": "Guadix", "Province": "Carthaginensis", "Latitude": 37.299552, "Longitude": -3.137125, "Earliest_Attested_Bishop": 47, "Elvira_306": "Felix", "Elvira_306 Attendance": true, "Zaragoza_380": "-", "Toledo_400": "-", "Tarragona_516": "-", "Tarragona_516 Attendance": false, "Giron_517": "-", "Giron_517 Attendance": false, "Toledo_527": "-", "Toledo_527 Attendance": false, "Barcelona_540": "-", "Barcelona_540 Attendance": false, "Lérida_546": "-", "Lérida_546 Attendance": false, "Valencia_546": "-", "Valencia_546 Attendance": false, "Braga_561": "-", "Braga_561 Attendance": false, "Braga_572": "-", "Braga_572 Attendance": false, "Toledo_589": "Lilliolus", "Toledo_589 Attendance": true, "Notes": null, "Toledo_400 Attendance": false, "Zaragoza_380 Attendance": false }, "geometry": { "type": "Point", "coordinates": [ -3.137125, 37.299552 ] } },
    { "type": "Feature", "properties": { "See": "Agata", "Modern_City": "Agde", "Province": "Gallia", "Latitude": 43.31, "Longitude": 3.475278, "Earliest_Attested_Bishop": 506, "Elvira_306": "-", "Elvira_306 Attendance": false, "Zaragoza_380": "-", "Toledo_400": "-", "Tarragona_516": "-", "Tarragona_516 Attendance": false, "Giron_517": "-", "Giron_517 Attendance": false, "Toledo_527": "-", "Toledo_527 Attendance": false, "Barcelona_540": "-", "Barcelona_540 Attendance": false, "Lérida_546": "-", "Lérida_546 Attendance": false, "Valencia_546": "-", "Valencia_546 Attendance": false, "Braga_561": "-", "Braga_561 Attendance": false, "Braga_572": "-", "Braga_572 Attendance": false, "Toledo_589": "Tigridius", "Toledo_589 Attendance": true, "Notes": "Duchesne vol. 1, 317-318", "Toledo_400 Attendance": false, "Zaragoza_380 Attendance": false }, "geometry": { "type": "Point", "coordinates": [ 3.475278, 43.31 ] } },
    { "type": "Feature", "properties": { "See": "Ampurias", "Modern_City": "Empuries", "Province": "Tarraconensis", "Latitude": 42.139619, "Longitude": 3.117987, "Earliest_Attested_Bishop": 516, "Elvira_306": "-", "Elvira_306 Attendance": false, "Zaragoza_380": "-", "Toledo_400": "-", "Tarragona_516": "Paulus", "Tarragona_516 Attendance": true, "Giron_517": "Paulus", "Giron_517 Attendance": true, "Toledo_527": "-", "Toledo_527 Attendance": false, "Barcelona_540": "Carontius", "Barcelona_540 Attendance": true, "Lérida_546": "Carontius", "Lérida_546 Attendance": true, "Valencia_546": "-", "Valencia_546 Attendance": false, "Braga_561": "-", "Braga_561 Attendance": false, "Braga_572": "-", "Braga_572 Attendance": false, "Toledo_589": "Archpresbyter (Gaianus)", "Toledo_589 Attendance": true, "Notes": null, "Toledo_400 Attendance": false, "Zaragoza_380 Attendance": false }, "geometry": { "type": "Point", "coordinates": [ 3.117987, 42.139619 ] } },
    { "type": "Feature", "properties": { "See": "Aquae Flaviae", "Modern_City": "Chaves", "Province": "Lusitania", "Latitude": 41.739, "Longitude": -7.469, "Earliest_Attested_Bishop": 430, "Elvira_306": "-", "Elvira_306 Attendance": false, "Zaragoza_380": "-", "Toledo_400": "-", "Tarragona_516": "-", "Tarragona_516 Attendance": false, "Giron_517": "-", "Giron_517 Attendance": false, "Toledo_527": "-", "Toledo_527 Attendance": false, "Barcelona_540": "-", "Barcelona_540 Attendance": false, "Lérida_546": "-", "Lérida_546 Attendance": false, "Valencia_546": "-", "Valencia_546 Attendance": false, "Braga_561": "-", "Braga_561 Attendance": false, "Braga_572": "-", "Braga_572 Attendance": false, "Toledo_589": "-", "Toledo_589 Attendance": false, "Notes": null, "Toledo_400 Attendance": false, "Zaragoza_380 Attendance": false }, "geometry": { "type": "Point", "coordinates": [ -7.469, 41.739 ] } },
    { "type": "Feature", "properties": { "See": "Arcavica Celtiberiae", "Modern_City": "Ercavica", "Province": "Carthaginensis", "Latitude": 40.431768, "Longitude": -2.669288, "Earliest_Attested_Bishop": 589, "Elvira_306": "-", "Elvira_306 Attendance": false, "Zaragoza_380": "-", "Toledo_400": "-", "Tarragona_516": "-", "Tarragona_516 Attendance": false, "Giron_517": "-", "Giron_517 Attendance": false, "Toledo_527": "-", "Toledo_527 Attendance": false, "Barcelona_540": "-", "Barcelona_540 Attendance": false, "Lérida_546": "-", "Lérida_546 Attendance": false, "Valencia_546": "-", "Valencia_546 Attendance": false, "Braga_561": "-", "Braga_561 Attendance": false, "Braga_572": "-", "Braga_572 Attendance": false, "Toledo_589": "Petrus", "Toledo_589 Attendance": true, "Notes": null, "Toledo_400 Attendance": false, "Zaragoza_380 Attendance": false }, "geometry": { "type": "Point", "coordinates": [ -2.669288, 40.431768 ] } },
    { "type": "Feature", "properties": { "See": "Astigi", "Modern_City": "Écija", "Province": "Baetica", "Latitude": 37.541111, "Longitude": -5.079167, "Earliest_Attested_Bishop": 585, "Elvira_306": "-", "Elvira_306 Attendance": false, "Zaragoza_380": "-", "Toledo_400": "-", "Tarragona_516": "-", "Tarragona_516 Attendance": false, "Giron_517": "-", "Giron_517 Attendance": false, "Toledo_527": "-", "Toledo_527 Attendance": false, "Barcelona_540": "-", "Barcelona_540 Attendance": false, "Lérida_546": "-", "Lérida_546 Attendance": false, "Valencia_546": "-", "Valencia_546 Attendance": false, "Braga_561": "-", "Braga_561 Attendance": false, "Braga_572": "-", "Braga_572 Attendance": false, "Toledo_589": "Deacon (Servandus)", "Toledo_589 Attendance": true, "Notes": null, "Toledo_400 Attendance": false, "Zaragoza_380 Attendance": false }, "geometry": { "type": "Point", "coordinates": [ -5.079167, 37.541111 ] } },
    { "type": "Feature", "properties": { "See": "Asturica Augusta", "Modern_City": "Astorga", "Province": "Gallaecia", "Latitude": 42.4589, "Longitude": -6.06333, "Earliest_Attested_Bishop": 250, "Elvira_306": "-", "Elvira_306 Attendance": false, "Zaragoza_380": "Simposius", "Toledo_400": "condemned (Sinfosius)", "Tarragona_516": "-", "Tarragona_516 Attendance": false, "Giron_517": "-", "Giron_517 Attendance": false, "Toledo_527": "-", "Toledo_527 Attendance": false, "Barcelona_540": "-", "Barcelona_540 Attendance": false, "Lérida_546": "-", "Lérida_546 Attendance": false, "Valencia_546": "-", "Valencia_546 Attendance": false, "Braga_561": "-", "Braga_561 Attendance": false, "Braga_572": "Polimus", "Braga_572 Attendance": true, "Toledo_589": "Talasius", "Toledo_589 Attendance": true, "Notes": null, "Toledo_400 Attendance": false, "Zaragoza_380 Attendance": true }, "geometry": { "type": "Point", "coordinates": [ -6.06333, 42.4589 ] } },
    { "type": "Feature", "properties": { "See": "Auca", "Modern_City": "Oca", "Province": "Tarraconensis", "Latitude": 42.386389, "Longitude": -3.309167, "Earliest_Attested_Bishop": 589, "Elvira_306": "-", "Elvira_306 Attendance": false, "Zaragoza_380": "-", "Toledo_400": "-", "Tarragona_516": "-", "Tarragona_516 Attendance": false, "Giron_517": "-", "Giron_517 Attendance": false, "Toledo_527": "-", "Toledo_527 Attendance": false, "Barcelona_540": "-", "Barcelona_540 Attendance": false, "Lérida_546": "-", "Lérida_546 Attendance": false, "Valencia_546": "-", "Valencia_546 Attendance": false, "Braga_561": "-", "Braga_561 Attendance": false, "Braga_572": "-", "Braga_572 Attendance": false, "Toledo_589": "Asterius", "Toledo_589 Attendance": true, "Notes": null, "Toledo_400 Attendance": false, "Zaragoza_380 Attendance": false }, "geometry": { "type": "Point", "coordinates": [ -3.309167, 42.386389 ] } },
    { "type": "Feature", "properties": { "See": "Augusta Emerita", "Modern_City": "Mérida", "Province": "Lusitania", "Latitude": 38.917275, "Longitude": -6.344845, "Earliest_Attested_Bishop": 255, "Elvira_306": "Liberius (M)", "Elvira_306 Attendance": true, "Zaragoza_380": "Idacius (M)", "Toledo_400": "Patruinus (M)", "Tarragona_516": "-", "Tarragona_516 Attendance": false, "Giron_517": "-", "Giron_517 Attendance": false, "Toledo_527": "Paulus? (dubious, M)", "Toledo_527 Attendance": true, "Barcelona_540": "-", "Barcelona_540 Attendance": false, "Lérida_546": "-", "Lérida_546 Attendance": false, "Valencia_546": "-", "Valencia_546 Attendance": false, "Braga_561": "-", "Braga_561 Attendance": false, "Braga_572": "-", "Braga_572 Attendance": false, "Toledo_589": "Masona (M)", "Toledo_589 Attendance": true, "Notes": null, "Toledo_400 Attendance": true, "Zaragoza_380 Attendance": true }, "geometry": { "type": "Point", "coordinates": [ -6.344845, 38.917275 ] } },
    { "type": "Feature", "properties": { "See": "Auriensis", "Modern_City": "Orense", "Province": "Gallaecia", "Latitude": 42.336389, "Longitude": -7.863333, "Earliest_Attested_Bishop": 572, "Elvira_306": "-", "Elvira_306 Attendance": false, "Zaragoza_380": "-", "Toledo_400": "-", "Tarragona_516": "-", "Tarragona_516 Attendance": false, "Giron_517": "-", "Giron_517 Attendance": false, "Toledo_527": "-", "Toledo_527 Attendance": false, "Barcelona_540": "-", "Barcelona_540 Attendance": false, "Lérida_546": "-", "Lérida_546 Attendance": false, "Valencia_546": "-", "Valencia_546 Attendance": false, "Braga_561": "-", "Braga_561 Attendance": false, "Braga_572": "Witimer", "Braga_572 Attendance": true, "Toledo_589": "Archpresbyter (Hildimirus)", "Toledo_589 Attendance": true, "Notes": null, "Toledo_400 Attendance": false, "Zaragoza_380 Attendance": false }, "geometry": { "type": "Point", "coordinates": [ -7.863333, 42.336389 ] } },
    { "type": "Feature", "properties": { "See": "Ausona", "Modern_City": "Vic", "Province": "Tarraconensis", "Latitude": 41.930379, "Longitude": 2.254575, "Earliest_Attested_Bishop": 516, "Elvira_306": "-", "Elvira_306 Attendance": false, "Zaragoza_380": "-", "Toledo_400": "-", "Tarragona_516": "Cinidius", "Tarragona_516 Attendance": true, "Giron_517": "Cinidius", "Giron_517 Attendance": true, "Toledo_527": "-", "Toledo_527 Attendance": false, "Barcelona_540": "-", "Barcelona_540 Attendance": false, "Lérida_546": "-", "Lérida_546 Attendance": false, "Valencia_546": "-", "Valencia_546 Attendance": false, "Braga_561": "-", "Braga_561 Attendance": false, "Braga_572": "-", "Braga_572 Attendance": false, "Toledo_589": "Aquilinus", "Toledo_589 Attendance": true, "Notes": null, "Toledo_400 Attendance": false, "Zaragoza_380 Attendance": false }, "geometry": { "type": "Point", "coordinates": [ 2.254575, 41.930379 ] } },
    { "type": "Feature", "properties": { "See": "Barcino", "Modern_City": "Barcelona", "Province": "Tarraconensis", "Latitude": 41.382223, "Longitude": 2.177258, "Earliest_Attested_Bishop": 343, "Elvira_306": "-", "Elvira_306 Attendance": false, "Zaragoza_380": "-", "Toledo_400": "Lampius", "Tarragona_516": "Agricius", "Tarragona_516 Attendance": true, "Giron_517": "Agricius", "Giron_517 Attendance": true, "Toledo_527": "-", "Toledo_527 Attendance": false, "Barcelona_540": "Nibridius", "Barcelona_540 Attendance": true, "Lérida_546": "Paternus", "Lérida_546 Attendance": true, "Valencia_546": "-", "Valencia_546 Attendance": false, "Braga_561": "-", "Braga_561 Attendance": false, "Braga_572": "-", "Braga_572 Attendance": false, "Toledo_589": "Ugnas", "Toledo_589 Attendance": true, "Notes": null, "Toledo_400 Attendance": true, "Zaragoza_380 Attendance": false }, "geometry": { "type": "Point", "coordinates": [ 2.177258, 41.382223 ] } },
    { "type": "Feature", "properties": { "See": "Basti", "Modern_City": "Baza", "Province": "Carthaginensis", "Latitude": 37.512257, "Longitude": -2.732414, "Earliest_Attested_Bishop": 306, "Elvira_306": "Euticianus", "Elvira_306 Attendance": true, "Zaragoza_380": "-", "Toledo_400": "-", "Tarragona_516": "-", "Tarragona_516 Attendance": false, "Giron_517": "-", "Giron_517 Attendance": false, "Toledo_527": "-", "Toledo_527 Attendance": false, "Barcelona_540": "-", "Barcelona_540 Attendance": false, "Lérida_546": "-", "Lérida_546 Attendance": false, "Valencia_546": "-", "Valencia_546 Attendance": false, "Braga_561": "-", "Braga_561 Attendance": false, "Braga_572": "-", "Braga_572 Attendance": false, "Toledo_589": "Theodorus", "Toledo_589 Attendance": true, "Notes": null, "Toledo_400 Attendance": false, "Zaragoza_380 Attendance": false }, "geometry": { "type": "Point", "coordinates": [ -2.732414, 37.512257 ] } },
    { "type": "Feature", "properties": { "See": "Begastri", "Modern_City": "Cehegín", "Province": "Carthaginensis", "Latitude": 38.087176, "Longitude": -1.771577, "Earliest_Attested_Bishop": 610, "Elvira_306": "-", "Elvira_306 Attendance": false, "Zaragoza_380": "-", "Toledo_400": "-", "Tarragona_516": "-", "Tarragona_516 Attendance": false, "Giron_517": "-", "Giron_517 Attendance": false, "Toledo_527": "-", "Toledo_527 Attendance": false, "Barcelona_540": "-", "Barcelona_540 Attendance": false, "Lérida_546": "-", "Lérida_546 Attendance": false, "Valencia_546": "-", "Valencia_546 Attendance": false, "Braga_561": "-", "Braga_561 Attendance": false, "Braga_572": "-", "Braga_572 Attendance": false, "Toledo_589": "-", "Toledo_589 Attendance": false, "Notes": null, "Toledo_400 Attendance": false, "Zaragoza_380 Attendance": false }, "geometry": { "type": "Point", "coordinates": [ -1.771577, 38.087176 ] } },
    { "type": "Feature", "properties": { "See": "Beterra", "Modern_City": "Beziers", "Province": "Gallia", "Latitude": 43.343333, "Longitude": 3.216111, "Earliest_Attested_Bishop": 418, "Elvira_306": "-", "Elvira_306 Attendance": false, "Zaragoza_380": "-", "Toledo_400": "-", "Tarragona_516": "-", "Tarragona_516 Attendance": false, "Giron_517": "-", "Giron_517 Attendance": false, "Toledo_527": "-", "Toledo_527 Attendance": false, "Barcelona_540": "-", "Barcelona_540 Attendance": false, "Lérida_546": "-", "Lérida_546 Attendance": false, "Valencia_546": "-", "Valencia_546 Attendance": false, "Braga_561": "-", "Braga_561 Attendance": false, "Braga_572": "-", "Braga_572 Attendance": false, "Toledo_589": "Sedatus", "Toledo_589 Attendance": true, "Notes": "Duchesne vol. 1, 309", "Toledo_400 Attendance": false, "Zaragoza_380 Attendance": false }, "geometry": { "type": "Point", "coordinates": [ 3.216111, 43.343333 ] } },
    { "type": "Feature", "properties": { "See": "Bisensis", "Modern_City": "Viseo", "Province": "Lusitania", "Latitude": 40.666667, "Longitude": -7.916667, "Earliest_Attested_Bishop": 572, "Elvira_306": "-", "Elvira_306 Attendance": false, "Zaragoza_380": "-", "Toledo_400": "-", "Tarragona_516": "-", "Tarragona_516 Attendance": false, "Giron_517": "-", "Giron_517 Attendance": false, "Toledo_527": "-", "Toledo_527 Attendance": false, "Barcelona_540": "-", "Barcelona_540 Attendance": false, "Lérida_546": "-", "Lérida_546 Attendance": false, "Valencia_546": "-", "Valencia_546 Attendance": false, "Braga_561": "-", "Braga_561 Attendance": false, "Braga_572": "Remisol", "Braga_572 Attendance": true, "Toledo_589": "Iohannes, Sunnila", "Toledo_589 Attendance": true, "Notes": null, "Toledo_400 Attendance": false, "Zaragoza_380 Attendance": false }, "geometry": { "type": "Point", "coordinates": [ -7.916667, 40.666667 ] } },
    { "type": "Feature", "properties": { "See": "Bracara Augusta", "Modern_City": "Braga", "Province": "Gallaecia", "Latitude": 41.548757, "Longitude": -8.427669, "Earliest_Attested_Bishop": 390, "Elvira_306": "-", "Elvira_306 Attendance": false, "Zaragoza_380": "-", "Toledo_400": "condemned (Paternus, M)", "Tarragona_516": "-", "Tarragona_516 Attendance": false, "Giron_517": "-", "Giron_517 Attendance": false, "Toledo_527": "-", "Toledo_527 Attendance": false, "Barcelona_540": "-", "Barcelona_540 Attendance": false, "Lérida_546": "-", "Lérida_546 Attendance": false, "Valencia_546": "-", "Valencia_546 Attendance": false, "Braga_561": "Lucretius (M)", "Braga_561 Attendance": true, "Braga_572": "Martin (M, shared w/ Dume)", "Braga_572 Attendance": true, "Toledo_589": "Pantardus (M)", "Toledo_589 Attendance": true, "Notes": null, "Toledo_400 Attendance": false, "Zaragoza_380 Attendance": false }, "geometry": { "type": "Point", "coordinates": [ -8.427669, 41.548757 ] } },
    { "type": "Feature", "properties": { "See": "Caesaraugusta", "Modern_City": "Zaragoza", "Province": "Tarraconensis", "Latitude": 41.653547, "Longitude": -0.879897, "Earliest_Attested_Bishop": 256, "Elvira_306": "Valerius", "Elvira_306 Attendance": true, "Zaragoza_380": "Valerius", "Toledo_400": "-", "Tarragona_516": "Vincentius", "Tarragona_516 Attendance": true, "Giron_517": "-", "Giron_517 Attendance": false, "Toledo_527": "-", "Toledo_527 Attendance": false, "Barcelona_540": "Iohannes", "Barcelona_540 Attendance": true, "Lérida_546": "Iohannes", "Lérida_546 Attendance": true, "Valencia_546": "-", "Valencia_546 Attendance": false, "Braga_561": "-", "Braga_561 Attendance": false, "Braga_572": "-", "Braga_572 Attendance": false, "Toledo_589": "Simplicius", "Toledo_589 Attendance": true, "Notes": null, "Toledo_400 Attendance": false, "Zaragoza_380 Attendance": true }, "geometry": { "type": "Point", "coordinates": [ -0.879897, 41.653547 ] } },
    { "type": "Feature", "properties": { "See": "Calagurris (Fibularia/Nasica Iulia)", "Modern_City": "Calahorra?", "Province": "Tarraconensis", "Latitude": 42.303333, "Longitude": -1.964722, "Earliest_Attested_Bishop": 306, "Elvira_306": "Ianuarius (Fibularia)", "Elvira_306 Attendance": true, "Zaragoza_380": "-", "Toledo_400": "-", "Tarragona_516": "-", "Tarragona_516 Attendance": false, "Giron_517": "-", "Giron_517 Attendance": false, "Toledo_527": "-", "Toledo_527 Attendance": false, "Barcelona_540": "-", "Barcelona_540 Attendance": false, "Lérida_546": "-", "Lérida_546 Attendance": false, "Valencia_546": "-", "Valencia_546 Attendance": false, "Braga_561": "-", "Braga_561 Attendance": false, "Braga_572": "-", "Braga_572 Attendance": false, "Toledo_589": "Mummius (Nasica Iulia)", "Toledo_589 Attendance": true, "Notes": null, "Toledo_400 Attendance": false, "Zaragoza_380 Attendance": false }, "geometry": { "type": "Point", "coordinates": [ -1.964722, 42.303333 ] } },
    { "type": "Feature", "properties": { "See": "Caliabria", "Modern_City": "Ciudad Rodrigo", "Province": "Lusitania", "Latitude": 40.59757, "Longitude": -6.533918, "Earliest_Attested_Bishop": null, "Elvira_306": "-", "Elvira_306 Attendance": false, "Zaragoza_380": "-", "Toledo_400": "-", "Tarragona_516": "-", "Tarragona_516 Attendance": false, "Giron_517": "-", "Giron_517 Attendance": false, "Toledo_527": "-", "Toledo_527 Attendance": false, "Barcelona_540": "-", "Barcelona_540 Attendance": false, "Lérida_546": "-", "Lérida_546 Attendance": false, "Valencia_546": "-", "Valencia_546 Attendance": false, "Braga_561": "-", "Braga_561 Attendance": false, "Braga_572": "-", "Braga_572 Attendance": false, "Toledo_589": "-", "Toledo_589 Attendance": false, "Notes": null, "Toledo_400 Attendance": false, "Zaragoza_380 Attendance": false }, "geometry": { "type": "Point", "coordinates": [ -6.533918, 40.59757 ] } },
    { "type": "Feature", "properties": { "See": "Carcasona", "Modern_City": "Carcassonne", "Province": "Gallia", "Latitude": 43.215833, "Longitude": 2.351389, "Earliest_Attested_Bishop": 589, "Elvira_306": "-", "Elvira_306 Attendance": false, "Zaragoza_380": "-", "Toledo_400": "-", "Tarragona_516": "-", "Tarragona_516 Attendance": false, "Giron_517": "-", "Giron_517 Attendance": false, "Toledo_527": "-", "Toledo_527 Attendance": false, "Barcelona_540": "-", "Barcelona_540 Attendance": false, "Lérida_546": "-", "Lérida_546 Attendance": false, "Valencia_546": "-", "Valencia_546 Attendance": false, "Braga_561": "-", "Braga_561 Attendance": false, "Braga_572": "-", "Braga_572 Attendance": false, "Toledo_589": "Sergius", "Toledo_589 Attendance": true, "Notes": "Duchesne vol. 1, 318-319", "Toledo_400 Attendance": false, "Zaragoza_380 Attendance": false }, "geometry": { "type": "Point", "coordinates": [ 2.351389, 43.215833 ] } },
    { "type": "Feature", "properties": { "See": "Cartago Spartaria", "Modern_City": "Cartagena", "Province": "Carthaginensis", "Latitude": 37.602603, "Longitude": -0.985162, "Earliest_Attested_Bishop": 439, "Elvira_306": "-", "Elvira_306 Attendance": false, "Zaragoza_380": "-", "Toledo_400": "-", "Tarragona_516": "Ector (M?)", "Tarragona_516 Attendance": true, "Giron_517": "-", "Giron_517 Attendance": false, "Toledo_527": "-", "Toledo_527 Attendance": false, "Barcelona_540": "-", "Barcelona_540 Attendance": false, "Lérida_546": "-", "Lérida_546 Attendance": false, "Valencia_546": "Celcinus", "Valencia_546 Attendance": true, "Braga_561": "-", "Braga_561 Attendance": false, "Braga_572": "-", "Braga_572 Attendance": false, "Toledo_589": "-", "Toledo_589 Attendance": false, "Notes": null, "Toledo_400 Attendance": false, "Zaragoza_380 Attendance": false }, "geometry": { "type": "Point", "coordinates": [ -0.985162, 37.602603 ] } },
    { "type": "Feature", "properties": { "See": "Castolo", "Modern_City": "Castulo", "Province": "Carthaginensis", "Latitude": 38.035905, "Longitude": -3.623552, "Earliest_Attested_Bishop": 306, "Elvira_306": "Secundinus", "Elvira_306 Attendance": true, "Zaragoza_380": "-", "Toledo_400": "-", "Tarragona_516": "-", "Tarragona_516 Attendance": false, "Giron_517": "-", "Giron_517 Attendance": false, "Toledo_527": "-", "Toledo_527 Attendance": false, "Barcelona_540": "-", "Barcelona_540 Attendance": false, "Lérida_546": "-", "Lérida_546 Attendance": false, "Valencia_546": "-", "Valencia_546 Attendance": false, "Braga_561": "-", "Braga_561 Attendance": false, "Braga_572": "-", "Braga_572 Attendance": false, "Toledo_589": "Theodorus", "Toledo_589 Attendance": true, "Notes": null, "Toledo_400 Attendance": false, "Zaragoza_380 Attendance": false }, "geometry": { "type": "Point", "coordinates": [ -3.623552, 38.035905 ] } },
    { "type": "Feature", "properties": { "See": "Cauria", "Modern_City": "Coria", "Province": "Lusitania", "Latitude": 39.9819, "Longitude": -6.53694, "Earliest_Attested_Bishop": 589, "Elvira_306": "-", "Elvira_306 Attendance": false, "Zaragoza_380": "-", "Toledo_400": "-", "Tarragona_516": "-", "Tarragona_516 Attendance": false, "Giron_517": "-", "Giron_517 Attendance": false, "Toledo_527": "-", "Toledo_527 Attendance": false, "Barcelona_540": "-", "Barcelona_540 Attendance": false, "Lérida_546": "-", "Lérida_546 Attendance": false, "Valencia_546": "-", "Valencia_546 Attendance": false, "Braga_561": "-", "Braga_561 Attendance": false, "Braga_572": "-", "Braga_572 Attendance": false, "Toledo_589": "Iaquintus", "Toledo_589 Attendance": true, "Notes": null, "Toledo_400 Attendance": false, "Zaragoza_380 Attendance": false }, "geometry": { "type": "Point", "coordinates": [ -6.53694, 39.9819 ] } },
    { "type": "Feature", "properties": { "See": "Columbriga / Aeminium", "Modern_City": "Coimbra", "Province": "Gallaecia", "Latitude": 40.208639, "Longitude": -8.425698, "Earliest_Attested_Bishop": 561, "Elvira_306": "-", "Elvira_306 Attendance": false, "Zaragoza_380": "-", "Toledo_400": "-", "Tarragona_516": "-", "Tarragona_516 Attendance": false, "Giron_517": "-", "Giron_517 Attendance": false, "Toledo_527": "-", "Toledo_527 Attendance": false, "Barcelona_540": "-", "Barcelona_540 Attendance": false, "Lérida_546": "-", "Lérida_546 Attendance": false, "Valencia_546": "-", "Valencia_546 Attendance": false, "Braga_561": "Lucetius", "Braga_561 Attendance": true, "Braga_572": "Lucetius", "Braga_572 Attendance": true, "Toledo_589": "Possidonius", "Toledo_589 Attendance": true, "Notes": null, "Toledo_400 Attendance": false, "Zaragoza_380 Attendance": false }, "geometry": { "type": "Point", "coordinates": [ -8.425698, 40.208639 ] } },
    { "type": "Feature", "properties": { "See": "Complutum", "Modern_City": "Alcalá de Henares", "Province": "Carthaginensis", "Latitude": 40.473611, "Longitude": -3.384167, "Earliest_Attested_Bishop": 412, "Elvira_306": "-", "Elvira_306 Attendance": false, "Zaragoza_380": "-", "Toledo_400": "-", "Tarragona_516": "-", "Tarragona_516 Attendance": false, "Giron_517": "-", "Giron_517 Attendance": false, "Toledo_527": "-", "Toledo_527 Attendance": false, "Barcelona_540": "-", "Barcelona_540 Attendance": false, "Lérida_546": "-", "Lérida_546 Attendance": false, "Valencia_546": "-", "Valencia_546 Attendance": false, "Braga_561": "-", "Braga_561 Attendance": false, "Braga_572": "-", "Braga_572 Attendance": false, "Toledo_589": "-", "Toledo_589 Attendance": false, "Notes": null, "Toledo_400 Attendance": false, "Zaragoza_380 Attendance": false }, "geometry": { "type": "Point", "coordinates": [ -3.384167, 40.473611 ] } },
    { "type": "Feature", "properties": { "See": "Cordoba", "Modern_City": "Córdoba", "Province": "Baetica", "Latitude": 37.884738, "Longitude": -4.776357, "Earliest_Attested_Bishop": 290, "Elvira_306": "Osius", "Elvira_306 Attendance": true, "Zaragoza_380": "-", "Toledo_400": "-", "Tarragona_516": "-", "Tarragona_516 Attendance": false, "Giron_517": "-", "Giron_517 Attendance": false, "Toledo_527": "-", "Toledo_527 Attendance": false, "Barcelona_540": "-", "Barcelona_540 Attendance": false, "Lérida_546": "-", "Lérida_546 Attendance": false, "Valencia_546": "-", "Valencia_546 Attendance": false, "Braga_561": "-", "Braga_561 Attendance": false, "Braga_572": "-", "Braga_572 Attendance": false, "Toledo_589": "Agapius", "Toledo_589 Attendance": true, "Notes": null, "Toledo_400 Attendance": false, "Zaragoza_380 Attendance": false }, "geometry": { "type": "Point", "coordinates": [ -4.776357, 37.884738 ] } },
    { "type": "Feature", "properties": { "See": "Dertosa", "Modern_City": "Tortosa", "Province": "Tarraconensis", "Latitude": 40.8125, "Longitude": 0.521111, "Earliest_Attested_Bishop": 516, "Elvira_306": "-", "Elvira_306 Attendance": false, "Zaragoza_380": "-", "Toledo_400": "-", "Tarragona_516": "Ursus", "Tarragona_516 Attendance": true, "Giron_517": "-", "Giron_517 Attendance": false, "Toledo_527": "-", "Toledo_527 Attendance": false, "Barcelona_540": "Asellus", "Barcelona_540 Attendance": true, "Lérida_546": "Maurilius", "Lérida_546 Attendance": true, "Valencia_546": "-", "Valencia_546 Attendance": false, "Braga_561": "-", "Braga_561 Attendance": false, "Braga_572": "-", "Braga_572 Attendance": false, "Toledo_589": "Iulianus, Froisclus (Arrian)", "Toledo_589 Attendance": true, "Notes": null, "Toledo_400 Attendance": false, "Zaragoza_380 Attendance": false }, "geometry": { "type": "Point", "coordinates": [ 0.521111, 40.8125 ] } },
    { "type": "Feature", "properties": { "See": "Dianium / Dénia", "Modern_City": "Dénia", "Province": "Carthaginensis", "Latitude": 38.840174, "Longitude": 0.106272, "Earliest_Attested_Bishop": 636, "Elvira_306": "-", "Elvira_306 Attendance": false, "Zaragoza_380": "-", "Toledo_400": "-", "Tarragona_516": "-", "Tarragona_516 Attendance": false, "Giron_517": "-", "Giron_517 Attendance": false, "Toledo_527": "-", "Toledo_527 Attendance": false, "Barcelona_540": "-", "Barcelona_540 Attendance": false, "Lérida_546": "-", "Lérida_546 Attendance": false, "Valencia_546": "-", "Valencia_546 Attendance": false, "Braga_561": "-", "Braga_561 Attendance": false, "Braga_572": "-", "Braga_572 Attendance": false, "Toledo_589": "-", "Toledo_589 Attendance": false, "Notes": null, "Toledo_400 Attendance": false, "Zaragoza_380 Attendance": false }, "geometry": { "type": "Point", "coordinates": [ 0.106272, 38.840174 ] } },
    { "type": "Feature", "properties": { "See": "Dumiensis monasterius", "Modern_City": "Dume", "Province": "Gallaecia", "Latitude": 41.570833, "Longitude": -8.433611, "Earliest_Attested_Bishop": 556, "Elvira_306": "-", "Elvira_306 Attendance": false, "Zaragoza_380": "-", "Toledo_400": "-", "Tarragona_516": "-", "Tarragona_516 Attendance": false, "Giron_517": "-", "Giron_517 Attendance": false, "Toledo_527": "-", "Toledo_527 Attendance": false, "Barcelona_540": "-", "Barcelona_540 Attendance": false, "Lérida_546": "-", "Lérida_546 Attendance": false, "Valencia_546": "-", "Valencia_546 Attendance": false, "Braga_561": "Martin", "Braga_561 Attendance": true, "Braga_572": "-", "Braga_572 Attendance": false, "Toledo_589": "Iohannes", "Toledo_589 Attendance": true, "Notes": null, "Toledo_400 Attendance": false, "Zaragoza_380 Attendance": false }, "geometry": { "type": "Point", "coordinates": [ -8.433611, 41.570833 ] } },
    { "type": "Feature", "properties": { "See": "Ebusus", "Modern_City": "Ibiza", "Province": "Baleares", "Latitude": 38.981173, "Longitude": 1.422904, "Earliest_Attested_Bishop": 484, "Elvira_306": "-", "Elvira_306 Attendance": false, "Zaragoza_380": "-", "Toledo_400": "-", "Tarragona_516": "-", "Tarragona_516 Attendance": false, "Giron_517": "-", "Giron_517 Attendance": false, "Toledo_527": "-", "Toledo_527 Attendance": false, "Barcelona_540": "-", "Barcelona_540 Attendance": false, "Lérida_546": "-", "Lérida_546 Attendance": false, "Valencia_546": "-", "Valencia_546 Attendance": false, "Braga_561": "-", "Braga_561 Attendance": false, "Braga_572": "-", "Braga_572 Attendance": false, "Toledo_589": "-", "Toledo_589 Attendance": false, "Notes": null, "Toledo_400 Attendance": false, "Zaragoza_380 Attendance": false }, "geometry": { "type": "Point", "coordinates": [ 1.422904, 38.981173 ] } },
    { "type": "Feature", "properties": { "See": "Egara", "Modern_City": "Terrassa", "Province": "Tarraconensis", "Latitude": 41.566583, "Longitude": 2.018277, "Earliest_Attested_Bishop": 465, "Elvira_306": "-", "Elvira_306 Attendance": false, "Zaragoza_380": "-", "Toledo_400": "-", "Tarragona_516": "Nibridius", "Tarragona_516 Attendance": true, "Giron_517": "Nibridius", "Giron_517 Attendance": true, "Toledo_527": "Arrives late (Nibridius)", "Toledo_527 Attendance": true, "Barcelona_540": "-", "Barcelona_540 Attendance": false, "Lérida_546": "Taurus", "Lérida_546 Attendance": true, "Valencia_546": "-", "Valencia_546 Attendance": false, "Braga_561": "-", "Braga_561 Attendance": false, "Braga_572": "-", "Braga_572 Attendance": false, "Toledo_589": "Sofronius", "Toledo_589 Attendance": true, "Notes": null, "Toledo_400 Attendance": false, "Zaragoza_380 Attendance": false }, "geometry": { "type": "Point", "coordinates": [ 2.018277, 41.566583 ] } },
    { "type": "Feature", "properties": { "See": "Egestana", "Modern_City": "Idanha", "Province": "Lusitania", "Latitude": 39.996944, "Longitude": -7.144444, "Earliest_Attested_Bishop": 572, "Elvira_306": "-", "Elvira_306 Attendance": false, "Zaragoza_380": "-", "Toledo_400": "-", "Tarragona_516": "-", "Tarragona_516 Attendance": false, "Giron_517": "-", "Giron_517 Attendance": false, "Toledo_527": "-", "Toledo_527 Attendance": false, "Barcelona_540": "-", "Barcelona_540 Attendance": false, "Lérida_546": "-", "Lérida_546 Attendance": false, "Valencia_546": "-", "Valencia_546 Attendance": false, "Braga_561": "-", "Braga_561 Attendance": false, "Braga_572": "Adoricus", "Braga_572 Attendance": true, "Toledo_589": "-", "Toledo_589 Attendance": false, "Notes": null, "Toledo_400 Attendance": false, "Zaragoza_380 Attendance": false }, "geometry": { "type": "Point", "coordinates": [ -7.144444, 39.996944 ] } },
    { "type": "Feature", "properties": { "See": "Elbora", "Modern_City": "Evora", "Province": "Lusitania", "Latitude": 38.5725, "Longitude": -7.907222, "Earliest_Attested_Bishop": 306, "Elvira_306": "Quintianus", "Elvira_306 Attendance": true, "Zaragoza_380": "-", "Toledo_400": "-", "Tarragona_516": "-", "Tarragona_516 Attendance": false, "Giron_517": "-", "Giron_517 Attendance": false, "Toledo_527": "-", "Toledo_527 Attendance": false, "Barcelona_540": "-", "Barcelona_540 Attendance": false, "Lérida_546": "-", "Lérida_546 Attendance": false, "Valencia_546": "-", "Valencia_546 Attendance": false, "Braga_561": "-", "Braga_561 Attendance": false, "Braga_572": "-", "Braga_572 Attendance": false, "Toledo_589": "-", "Toledo_589 Attendance": false, "Notes": null, "Toledo_400 Attendance": false, "Zaragoza_380 Attendance": false }, "geometry": { "type": "Point", "coordinates": [ -7.907222, 38.5725 ] } },
    { "type": "Feature", "properties": { "See": "Elenensis", "Modern_City": "Elne", "Province": "Gallia", "Latitude": 42.600278, "Longitude": 2.971111, "Earliest_Attested_Bishop": 571, "Elvira_306": "-", "Elvira_306 Attendance": false, "Zaragoza_380": "-", "Toledo_400": "-", "Tarragona_516": "-", "Tarragona_516 Attendance": false, "Giron_517": "-", "Giron_517 Attendance": false, "Toledo_527": "-", "Toledo_527 Attendance": false, "Barcelona_540": "-", "Barcelona_540 Attendance": false, "Lérida_546": "-", "Lérida_546 Attendance": false, "Valencia_546": "-", "Valencia_546 Attendance": false, "Braga_561": "-", "Braga_561 Attendance": false, "Braga_572": "-", "Braga_572 Attendance": false, "Toledo_589": "Benenatus", "Toledo_589 Attendance": true, "Notes": "Duchesne vol. 1, 319-320", "Toledo_400 Attendance": false, "Zaragoza_380 Attendance": false }, "geometry": { "type": "Point", "coordinates": [ 2.971111, 42.600278 ] } },
    { "type": "Feature", "properties": { "See": "Eliocroca", "Modern_City": "Lorca", "Province": "Carthaginensis", "Latitude": 37.68333, "Longitude": -1.7, "Earliest_Attested_Bishop": 306, "Elvira_306": "Successus", "Elvira_306 Attendance": true, "Zaragoza_380": "-", "Toledo_400": "-", "Tarragona_516": "-", "Tarragona_516 Attendance": false, "Giron_517": "-", "Giron_517 Attendance": false, "Toledo_527": "-", "Toledo_527 Attendance": false, "Barcelona_540": "-", "Barcelona_540 Attendance": false, "Lérida_546": "-", "Lérida_546 Attendance": false, "Valencia_546": "-", "Valencia_546 Attendance": false, "Braga_561": "-", "Braga_561 Attendance": false, "Braga_572": "-", "Braga_572 Attendance": false, "Toledo_589": "-", "Toledo_589 Attendance": false, "Notes": null, "Toledo_400 Attendance": false, "Zaragoza_380 Attendance": false }, "geometry": { "type": "Point", "coordinates": [ -1.7, 37.68333 ] } } 
    ] } 
